[{"OBJECT_NAME":"ORBCOMM FM19","OBJECT_ID":"1998-046C","EPOCH":"2026-03-09T00:07:17.563296","MEAN_MOTION":14.39270127,"ECCENTRICITY":0.00018158,"INCLINATION":44.9959,"RA_OF_ASC_NODE":359.683,"ARG_OF_PERICENTER":187.4459,"MEAN_ANOMALY":272.3467,"EPHEMERIS_TYPE":0,"CLASSIFICATION_TYPE":"U","NORAD_CAT_ID":25415,"ELEMENT_SET_NO":999,"REV_AT_EPOCH":44234,"BSTAR":0.00058926699,"MEAN_MOTION_DOT":1.703e-5,"MEAN_MOTION_DDOT":0},{"OBJECT_NAME":"FENGYUN 1C DEB","OBJECT_ID":"1999-025AZP","EPOCH":"2026-03-08T20:41:07.900800","MEAN_MOTION":14.44877225,"ECCENTRICITY":0.00289397,"INCLINATION":98.8846,"RA_OF_ASC_NODE":208.4131,"ARG_OF_PERICENTER":339.1625,"MEAN_ANOMALY":173.2873,"EPHEMERIS_TYPE":0,"CLASSIFICATION_TYPE":"U","NORAD_CAT_ID":30925,"ELEMENT_SET_NO":999,"REV_AT_EPOCH":98315,"BSTAR":0.0030153806,"MEAN_MOTION_DOT":0.00010516,"MEAN_MOTION_DDOT":0}]
